{
  "type": "FeatureCollection",
  "features": [
    {
      "type": "Feature",
      "properties": {
        "norad_id": 46805,
        "name": "COSMOS 2547 (705K)",
        "group": "glo-ops",
        "lat": -14.462251703756973,
        "lon": 25.610077222782756,
        "alt_km": 19119.001721548382,
        "timestamp": "2025-12-16T15:45:51.307053+00:00",
        "meta_object_name": "COSMOS 2547 (705K)",
        "meta_object_id": "2020-075A",
        "meta_epoch": "2025-12-15T22:22:03.065088",
        "meta_mean_motion": 2.13100081,
        "meta_eccentricity": 0.00062311,
        "meta_inclination": 64.5961,
        "meta_ra_of_asc_node": 198.5898,
        "meta_arg_of_pericenter": 228.6409,
        "meta_mean_anomaly": 131.3861,
        "meta_ephemeris_type": 0,
        "meta_classification_type": "U",
        "meta_norad_cat_id": 46805,
        "meta_element_set_no": 999,
        "meta_rev_at_epoch": 4000,
        "meta_bstar": 0,
        "meta_mean_motion_dot": 1.08e-06,
        "meta_mean_motion_ddot": 0,
        "tle_line1": "1 46805U 20075A   25349.93197992  .00000108  00000+0  00000+0 0  9996",
        "tle_line2": "2 46805  64.5961 198.5898 0006231 228.6409 131.3861  2.13100081 40000"
      },
      "geometry": {
        "type": "Point",
        "coordinates": [
          25.610077222782756,
          -14.462251703756973
        ]
      }
    },
    {
      "type": "Feature",
      "properties": {
        "norad_id": 52984,
        "name": "COSMOS 2557 (706K)",
        "group": "glo-ops",
        "lat": 57.50048610137227,
        "lon": 9.67954548043343,
        "alt_km": 19154.549228226555,
        "timestamp": "2025-12-16T15:45:51.307064+00:00",
        "meta_object_name": "COSMOS 2557 (706K)",
        "meta_object_id": "2022-075A",
        "meta_epoch": "2025-12-15T15:04:15.324096",
        "meta_mean_motion": 2.13101866,
        "meta_eccentricity": 0.00137175,
        "meta_inclination": 64.4076,
        "meta_ra_of_asc_node": 320.9495,
        "meta_arg_of_pericenter": 276.9327,
        "meta_mean_anomaly": 82.9073,
        "meta_ephemeris_type": 0,
        "meta_classification_type": "U",
        "meta_norad_cat_id": 52984,
        "meta_element_set_no": 999,
        "meta_rev_at_epoch": 2680,
        "meta_bstar": 0,
        "meta_mean_motion_dot": -6.9e-07,
        "meta_mean_motion_ddot": 0,
        "tle_line1": "1 52984U 22075A   25349.62795514 -.00000069  00000+0  00000+0 0  9990",
        "tle_line2": "2 52984  64.4076 320.9495 0013717 276.9327  82.9073  2.13101866 26807"
      },
      "geometry": {
        "type": "Point",
        "coordinates": [
          9.67954548043343,
          57.50048610137227
        ]
      }
    },
    {
      "type": "Feature",
      "properties": {
        "norad_id": 54031,
        "name": "COSMOS 2559 (707K)",
        "group": "glo-ops",
        "lat": -25.135420102389563,
        "lon": 153.9986490460411,
        "alt_km": 19104.671028937402,
        "timestamp": "2025-12-16T15:45:51.307075+00:00",
        "meta_object_name": "COSMOS 2559 (707K)",
        "meta_object_id": "2022-130A",
        "meta_epoch": "2025-12-14T00:56:40.379136",
        "meta_mean_motion": 2.13101379,
        "meta_eccentricity": 0.00117642,
        "meta_inclination": 64.3815,
        "meta_ra_of_asc_node": 321.0953,
        "meta_arg_of_pericenter": 192.3475,
        "meta_mean_anomaly": 167.6228,
        "meta_ephemeris_type": 0,
        "meta_classification_type": "U",
        "meta_norad_cat_id": 54031,
        "meta_element_set_no": 999,
        "meta_rev_at_epoch": 2474,
        "meta_bstar": 0,
        "meta_mean_motion_dot": -6.6e-07,
        "meta_mean_motion_ddot": 0,
        "tle_line1": "1 54031U 22130A   25348.03935624 -.00000066  00000+0  00000+0 0  9996",
        "tle_line2": "2 54031  64.3815 321.0953 0011764 192.3475 167.6228  2.13101379 24741"
      },
      "geometry": {
        "type": "Point",
        "coordinates": [
          153.9986490460411,
          -25.135420102389563
        ]
      }
    },
    {
      "type": "Feature",
      "properties": {
        "norad_id": 54377,
        "name": "COSMOS 2564 (761)",
        "group": "glo-ops",
        "lat": -28.974150067851703,
        "lon": -176.38652519441902,
        "alt_km": 19145.825189305597,
        "timestamp": "2025-12-16T15:45:51.307086+00:00",
        "meta_object_name": "COSMOS 2564 (761)",
        "meta_object_id": "2022-161A",
        "meta_epoch": "2025-12-15T18:15:16.365312",
        "meta_mean_motion": 2.13102109,
        "meta_eccentricity": 0.0008585,
        "meta_inclination": 64.7384,
        "meta_ra_of_asc_node": 198.7985,
        "meta_arg_of_pericenter": 204.4254,
        "meta_mean_anomaly": 155.6143,
        "meta_ephemeris_type": 0,
        "meta_classification_type": "U",
        "meta_norad_cat_id": 54377,
        "meta_element_set_no": 999,
        "meta_rev_at_epoch": 2372,
        "meta_bstar": 0,
        "meta_mean_motion_dot": 1.07e-06,
        "meta_mean_motion_ddot": 0,
        "tle_line1": "1 54377U 22161A   25349.76060608  .00000107  00000+0  00000+0 0  9990",
        "tle_line2": "2 54377  64.7384 198.7985 0008585 204.4254 155.6143  2.13102109 23722"
      },
      "geometry": {
        "type": "Point",
        "coordinates": [
          -176.38652519441902,
          -28.974150067851703
        ]
      }
    },
    {
      "type": "Feature",
      "properties": {
        "norad_id": 57517,
        "name": "COSMOS 2569 (703K)",
        "group": "glo-ops",
        "lat": -38.0160826000655,
        "lon": 57.632301793211205,
        "alt_km": 19111.202801854313,
        "timestamp": "2025-12-16T15:45:51.307097+00:00",
        "meta_object_name": "COSMOS 2569 (703K)",
        "meta_object_id": "2023-114A",
        "meta_epoch": "2025-12-15T18:34:28.855776",
        "meta_mean_motion": 2.13104005,
        "meta_eccentricity": 0.00106213,
        "meta_inclination": 65.1958,
        "meta_ra_of_asc_node": 78.811,
        "meta_arg_of_pericenter": 287.0195,
        "meta_mean_anomaly": 72.8787,
        "meta_ephemeris_type": 0,
        "meta_classification_type": "U",
        "meta_norad_cat_id": 57517,
        "meta_element_set_no": 999,
        "meta_rev_at_epoch": 1835,
        "meta_bstar": 0,
        "meta_mean_motion_dot": -5.6e-07,
        "meta_mean_motion_ddot": 0,
        "tle_line1": "1 57517U 23114A   25349.77394509 -.00000056  00000+0  00000+0 0  9993",
        "tle_line2": "2 57517  65.1958  78.8110 0010621 287.0195  72.8787  2.13104005 18350"
      },
      "geometry": {
        "type": "Point",
        "coordinates": [
          57.632301793211205,
          -38.0160826000655
        ]
      }
    },
    {
      "type": "Feature",
      "properties": {
        "norad_id": 63130,
        "name": "COSMOS 2584 (704K)",
        "group": "glo-ops",
        "lat": 39.243726765724396,
        "lon": 101.40853279246717,
        "alt_km": 19144.79833397724,
        "timestamp": "2025-12-16T15:45:51.307108+00:00",
        "meta_object_name": "COSMOS 2584 (704K)",
        "meta_object_id": "2025-042A",
        "meta_epoch": "2025-12-14T17:19:43.603680",
        "meta_mean_motion": 2.13103043,
        "meta_eccentricity": 0.00076907,
        "meta_inclination": 64.977,
        "meta_ra_of_asc_node": 79.0784,
        "meta_arg_of_pericenter": 217.9412,
        "meta_mean_anomaly": 142.0178,
        "meta_ephemeris_type": 0,
        "meta_classification_type": "U",
        "meta_norad_cat_id": 63130,
        "meta_element_set_no": 999,
        "meta_rev_at_epoch": 611,
        "meta_bstar": 0,
        "meta_mean_motion_dot": -5.6e-07,
        "meta_mean_motion_ddot": 0,
        "tle_line1": "1 63130U 25042A   25348.72203245 -.00000056  00000+0  00000+0 0  9993",
        "tle_line2": "2 63130  64.9770  79.0784 0007690 217.9412 142.0178  2.13103043  6119"
      },
      "geometry": {
        "type": "Point",
        "coordinates": [
          101.40853279246717,
          39.243726765724396
        ]
      }
    },
    {
      "type": "Feature",
      "properties": {
        "norad_id": 65590,
        "name": "COSMOS 2596 (708K)",
        "group": "glo-ops",
        "lat": 15.59799149558129,
        "lon": 133.7527647297848,
        "alt_km": 19157.554505768443,
        "timestamp": "2025-12-16T15:45:51.307119+00:00",
        "meta_object_name": "COSMOS 2596 (708K)",
        "meta_object_id": "2025-206B",
        "meta_epoch": "2025-12-15T06:31:38.583840",
        "meta_mean_motion": 2.13100545,
        "meta_eccentricity": 0.00140608,
        "meta_inclination": 64.7428,
        "meta_ra_of_asc_node": 321.386,
        "meta_arg_of_pericenter": 306.8373,
        "meta_mean_anomaly": 233.4816,
        "meta_ephemeris_type": 0,
        "meta_classification_type": "U",
        "meta_norad_cat_id": 65590,
        "meta_element_set_no": 999,
        "meta_rev_at_epoch": 199,
        "meta_bstar": 0,
        "meta_mean_motion_dot": -6.8e-07,
        "meta_mean_motion_ddot": 0,
        "tle_line1": "1 65590U 25206B   25349.27197435 -.00000068  00000+0  00000+0 0  9994",
        "tle_line2": "2 65590  64.7428 321.3860 0014060 306.8373 233.4816  2.13100545  1999"
      },
      "geometry": {
        "type": "Point",
        "coordinates": [
          133.7527647297848,
          15.59799149558129
        ]
      }
    }
  ]
}